QIANFAN-25              
1 61558U 24185G   25242.87605569  .00000577  00000+0  34507-3 0  9996
2 61558  88.9745  89.9585 0005734 263.3498  96.7032 14.05772455 54912
QIANFAN-26              
1 61559U 24185H   25242.89423251  .00000278  00000+0  26550-3 0  9992
2 61559  88.9758  90.9730 0005085 346.4802  13.6227 13.77731477 54373
QIANFAN-27              
1 61560U 24185J   25242.91495831  .00000613  00000+0  24564-3 0  9996
2 61560  88.9751  89.1307 0005856 272.5917  87.4606 14.27145903 55358
QIANFAN-28              
1 61561U 24185K   25242.87334879  .00001042  00000+0  41664-3 0  9993
2 61561  88.9767  89.1311 0004911 274.5013  85.5621 14.27723123 55353
QIANFAN-29              
1 61562U 24185L   25242.90112917  .00000191  00000+0  27794-3 0  9997
2 61562  88.9737  92.0544 0010238   2.7979 357.3228 13.50959576 53778
QIANFAN-30              
1 61563U 24185M   25242.94564085  .00000189  00000+0  27890-3 0  9993
2 61563  88.9756  91.5354 0007209 350.7793   9.3224 13.49937704 54067
QIANFAN-31              
1 61564U 24185N   25242.93361629  .00000148  00000+0  18789-3 0  9994
2 61564  88.9741  91.5031 0006819 349.6437  10.4576 13.57910781 54071
QIANFAN-32              
1 61565U 24185P   25242.89759041  .00000184  00000+0  26735-3 0  9999
2 61565  88.9800  91.6432 0009866  13.0143 347.1261 13.50690471 54025
